STARLINK-32257          
1 62171U 24225J   25294.79554214  .00005133  00000+0  43756-3 0  9990
2 62171  70.0005 154.5163 0002743 269.9566  90.1278 14.98336074 49077
STARLINK-32407          
1 62172U 24225K   25294.81224319  .00009754  00000+0  82404-3 0  9990
2 62172  70.0000 154.5666 0003172 268.1863  91.8933 14.98333986 49074
STARLINK-32575          
1 62173U 24225L   25294.78900697  .00005063  00000+0  43187-3 0  9991
2 62173  70.0000 144.4845 0003048 268.2078  91.8732 14.98327494 49325
STARLINK-32552          
1 62174U 24225M   25294.79969499  .00013571  00000+0  11417-2 0  9991
2 62174  70.0013 154.5308 0002875 256.1167 103.9673 14.98372411 49078
STARLINK-32534          
1 62175U 24225N   25294.84563307  .00005205  00000+0  44358-3 0  9992
2 62175  70.0001 154.6876 0002952 270.1282  89.9539 14.98335966 49075
STARLINK-32516          
1 62176U 24225P   25294.83730683  .00012763  00000+0  10751-2 0  9991
2 62176  69.9997 154.6563 0002705 271.1371  88.9478 14.98344605 49077
STARLINK-32542          
1 62177U 24225Q   25294.82477931  .00012741  00000+0  10735-2 0  9993
2 62177  70.0004 154.6112 0003059 272.3254  87.7555 14.98337320 49075
STARLINK-32600          
1 62178U 24225R   25294.83909334  .00004652  00000+0  39745-3 0  9997
2 62178  70.0002 144.6573 0003063 269.9763  90.1045 14.98328706 49324
STARLINK-32584          
1 62179U 24225S   25294.81643221  .00009963  00000+0  84179-3 0  9997
2 62179  69.9999 154.5200 0003224 272.3054  87.7736 14.98318974 49071
STARLINK-32587          
1 62180U 24225T   25294.80388948  .00004163  00000+0  35652-3 0  9999
2 62180  70.0006 154.4548 0002820 270.1794  89.9042 14.98328775 49071
STARLINK-32602          
1 62181U 24225U   25294.82239523  .00005879  00000+0  49994-3 0  9995
2 62181  70.0009 144.6032 0002535 264.4392  95.6477 14.98341470 49328
STARLINK-32565          
1 62182U 24225V   25294.78719493  .00005902  00000+0  50189-3 0  9995
2 62182  70.0005 154.4887 0002870 269.4140  90.6690 14.98336982 49076
STARLINK-32589          
1 62183U 24225W   25294.78705641  .00005795  00000+0  49299-3 0  9996
2 62183  70.0004 154.8854 0002847 272.6796  87.4037 14.98337102 49064
STARLINK-32581          
1 62184U 24225X   25294.80569647  .00004041  00000+0  34624-3 0  9993
2 62184  69.9997 144.5404 0002932 268.9172  91.1652 14.98333648 49326
STARLINK-32686          
1 62192U 24229A   25294.48396234  .00058732  00000+0  21248-2 0  9993
2 62192  43.0006 333.2526 0001014 258.4872 101.5866 15.27612103 49313
STARLINK-32688          
1 62193U 24229B   25294.17452558  .00036688  00000+0  13356-2 0  9999
2 62193  42.9988 338.6855 0000418 271.6607  88.4197 15.27591721 49227
STARLINK-32684          
1 62194U 24229C   25294.54115029  .00056296  00000+0  20386-2 0  9998
2 62194  43.0044 336.2802 0001581 262.5163  97.5509 15.27598358 50466
STARLINK-32672          
1 62195U 24229D   25294.42452470  .00048747  00000+0  17679-2 0  9993
2 62195  43.0011 337.1216 0000990 245.5051 114.5698 15.27604784 49266
STARLINK-32682          
1 62196U 24229E   25294.47735022  .00005047  00000+0  19297-3 0  9991
2 62196  43.0023 304.2379 0001611 248.4662 111.6018 15.27554412 49644
STARLINK-32663          
1 62197U 24229F   25294.39255033  .00041259  00000+0  14991-2 0  9992
2 62197  43.0027 337.7365 0001107 264.7147  95.3578 15.27610301 49250
STARLINK-32640          
1 62198U 24229G   25294.48219502  .00034690  00000+0  12633-2 0  9996
2 62198  43.0010 336.6970 0001082 286.5459  73.5274 15.27603464 49278
STARLINK-32653          
1 62199U 24229H   25294.37294746  .00034258  00000+0  12477-2 0  9994
2 62199  43.0001 330.6243 0000596 250.7931 109.2856 15.27604891 49338
STARLINK-32647          
1 62200U 24229J   25294.50403841  .00048022  00000+0  17404-2 0  9999
2 62200  43.0019 336.8546 0000980 294.3669  65.7081 15.27635243 49277
STARLINK-32667          
1 62201U 24229K   25294.46806536  .00031702  00000+0  11552-2 0  9998
2 62201  43.0008 336.5925 0001417 285.5578  74.5117 15.27619652 49275
STARLINK-32655          
1 62202U 24229L   25294.12329145  .00033865  00000+0  12343-2 0  9999
2 62202  43.0020 339.1590 0001181 287.4575  72.6148 15.27584578 49218
STARLINK-32665          
1 62203U 24229M   25294.17069081  .00026870  00000+0  98194-3 0  9992
2 62203  42.9965 338.6533 0000968 300.3125  59.7631 15.27596107 49229
STARLINK-32664          
1 62204U 24229N   25294.50787360  .00060264  00000+0  21757-2 0  9992
2 62204  43.0007 336.8820 0000738 306.7057  53.3727 15.27669059 49275
STARLINK-32660          
1 62205U 24229P   25294.14563839  .00033646  00000+0  12262-2 0  9991
2 62205  43.0025 324.5941 0001639 266.8413  93.2251 15.27592117 49384
STARLINK-32448          
1 62206U 24229Q   25294.53731067  .00047853  00000+0  17359-2 0  9992
2 62206  43.0016 336.2476 0001525 265.3342  94.7335 15.27605681 49286
STARLINK-32430          
1 62207U 24229R   25294.18273631  .00034956  00000+0  12740-2 0  9991
2 62207  43.0021 335.2957 0001600 267.7840  92.2828 15.27575215 49266
STARLINK-32675          
1 62208U 24229S   25294.42837583  .00044360  00000+0  16100-2 0  9995
2 62208  43.0016 337.1466 0001230 299.1886  60.8843 15.27618670 49266
STARLINK-32671          
1 62209U 24229T   25294.52973663  .00032457  00000+0  11826-2 0  9991
2 62209  43.0018 337.0457 0001365 275.1990  84.8705 15.27612746 49279
STARLINK-32670          
1 62210U 24229U   25294.15912714  .00045836  00000+0  16639-2 0  9994
2 62210  43.0012 338.5680 0000383 221.3036 138.7787 15.27598689 49225
STARLINK-32642          
1 62211U 24229V   25294.47962672  .00055759  00000+0  20189-2 0  9998
2 62211  43.0011 336.6741 0002000 261.1577  98.9049 15.27605754 49277
STARLINK-32668          
1 62212U 24229W   25294.44813598  .00034431  00000+0  12544-2 0  9998
2 62212  42.9997 333.8450 0001622 252.4002 107.6673 15.27593633 49307
STARLINK-32669          
1 62213U 24229X   25294.51945656  .00035250  00000+0  12838-2 0  9994
2 62213  43.0031 336.9672 0001239 239.8278 120.2451 15.27594850 49270
STARLINK-32666          
1 62214U 24229Y   25294.52588029  .00038939  00000+0  14157-2 0  9996
2 62214  43.0019 337.0178 0001061 281.1588  78.9144 15.27611873 49270
STARLINK-32662          
1 62215U 24229Z   25294.18482201  .00031179  00000+0  11374-2 0  9991
2 62215  43.0018 338.7554 0001028 282.7790  77.2946 15.27589179 49221
STARLINK-11394 [DTC]    
1 62218U 24231A   25294.77784187  .00123547  00000+0  10079-2 0  9992
2 62218  53.1567  66.0671 0001189 112.1894 247.9250 15.69748972 51596
STARLINK-11490 [DTC]    
1 62219U 24231B   25294.78274715  .00165661  00000+0  13421-2 0  9992
2 62219  53.1563  66.0992 0001039 111.9648 248.1480 15.69763662 51598
STARLINK-11466 [DTC]    
1 62220U 24231C   25294.66522134  .00224168  00000+0  18025-2 0  9995
2 62220  53.1567  66.7912 0001365  24.7606 335.3477 15.69751543 51578
STARLINK-11468 [DTC]    
1 62221U 24231D   25294.80236589  .00064146  00000+0  52952-3 0  9994
2 62221  53.1568  66.2267 0001716 158.5628 201.5462 15.69742141 51592
STARLINK-11488 [DTC]    
1 62222U 24231E   25294.85132178  .00181281  00000+0  14647-2 0  9997
2 62222  53.1566  65.8156 0001334  30.2728 329.8367 15.69775278 51603
STARLINK-11483 [DTC]    
1 62223U 24231F   25294.81698547  .00142810  00000+0  11613-2 0  9996
2 62223  53.1568  65.5881 0000915  60.6810 299.4299 15.69754594 51605
STARLINK-11492 [DTC]    
1 62224U 24231G   25294.79745316  .00076553  00000+0  62899-3 0  9994
2 62224  53.1566  66.2059 0004326 175.5770 184.5287 15.69774650 51594
STARLINK-11471 [DTC]    
1 62225U 24231H   25294.82189226  .00225548  00000+0  18065-2 0  9996
2 62225  53.1569  65.6313 0001546  73.9488 286.1700 15.69842284 51602
STARLINK-11475 [DTC]    
1 62226U 24231J   25294.82679332  .00148520  00000+0  12066-2 0  9998
2 62226  53.1563  65.6509 0001087 121.9626 238.1498 15.69756526 51606
STARLINK-11469 [DTC]    
1 62227U 24231K   25294.77293422  .00209172  00000+0  16833-2 0  9992
2 62227  53.1564  66.0287 0001387 119.6661 240.4495 15.69779799 51590
STARLINK-11476 [DTC]    
1 62228U 24231L   25294.81207803  .00228055  00000+0  18294-2 0  9990
2 62228  53.1562  65.5534 0000777  75.1387 284.9717 15.69796704 51619
STARLINK-11485 [DTC]    
1 62229U 24231M   25294.83169833  .00187953  00000+0  15162-2 0  9995
2 62229  53.1567  65.6816 0000986  89.1889 270.9241 15.69791628 51609
STARLINK-11481 [DTC]    
1 62230U 24231N   25294.67993873  .00142800  00000+0  11624-2 0  9999
2 62230  53.1564  66.8822 0001567  59.5171 300.6001 15.69729344 51576
STARLINK-32650          
1 62231U 24231P   25294.81621684  .00046389  00000+0  15684-2 0  9999
2 62231  53.1559 144.8672 0000912  93.1487 266.9618 15.30205502 50501
STARLINK-32636          
1 62232U 24231Q   25294.84143253  .00037718  00000+0  12790-2 0  9995
2 62232  53.1587 144.3177 0001251  88.8492 271.2652 15.30204383 50516
STARLINK-32643          
1 62233U 24231R   25294.83335647  .00037366  00000+0  12692-2 0  9995
2 62233  53.1584 131.8180 0001238 107.3511  83.3658 15.30154086  5885
STARLINK-32652          
1 62234U 24231S   25294.79933170  .00028094  00000+0  95701-3 0  9997
2 62234  53.1575 144.7633 0001206  62.7230 297.3893 15.30201944 50490
STARLINK-32631          
1 62235U 24231T   25294.82454639  .00035354  00000+0  94449-3 0  9995
2 62235  53.1581 132.1427 0001133  92.1856 267.9278 15.37785329 50671
STARLINK-32641          
1 62236U 24231U   25294.80194130  .00034312  00000+0  11651-2 0  9997
2 62236  53.1588 131.9976 0001058  93.6211 266.4911 15.30204585 50673
STARLINK-32632          
1 62262U 24231V   25294.80882699  .00040882  00000+0  13853-2 0  9995
2 62262  53.1564 144.8184 0001202  83.6815 276.4322 15.30190558 50503
STARLINK-11496 [DTC]    
1 62267U 24237A   25294.83335647  .00034011  00000+0  26765-3 0  9999
2 62267  43.0002 173.9395 0001595 255.6966 330.9696 15.70823475  5878
